IRIDIUM 921             
1 24873U 97034E   24323.19342362  .00088265  00000+0  98530-3 0  9997
2 24873  86.3751 210.8279 0006298  61.8730 298.3172 15.62465059499002
IRIDIUM 26              
1 24903U 97043A   24323.47441064  .00000651  00000+0  21407-3 0  9993
2 24903  86.4007 199.0330 0002320  81.7927 278.3534 14.36799292426489
IRIDIUM 22              
1 24907U 97043E   24323.44175528  .00000568  00000+0  19023-3 0  9991
2 24907  86.4011 202.4018 0002080  82.4389 277.7044 14.35650750426532
DUMMY MASS 1            
1 24925U 97048A   24323.56040640  .00000797  00000+0  86739-4 0  9998
2 24925  86.3374 232.6210 0007344 153.4784 206.6818 14.86622116474071
DUMMY MASS 2            
1 24926U 97048B   24323.55494667  .00000793  00000+0  86733-4 0  9990
2 24926  86.3371 234.1928 0007626 165.7521 194.3920 14.86377186473610
IRIDIUM 29              
1 24944U 97051A   24323.81439578  .00000702  00000+0  23465-3 0  9995
2 24944  86.3984 232.0440 0002058  85.6733 274.4698 14.36110593423298
IRIDIUM 33              
1 24946U 97051C   24323.78203262  .00000500  00000+0  16994-3 0  9997
2 24946  86.3902 231.3049 0009719  53.2331 306.9756 14.34650857422580
IRIDIUM 28              
1 24948U 97051E   24323.78547945  .00000688  00000+0  22553-3 0  9993
2 24948  86.3993 229.6921 0002637  78.0800 282.0693 14.37058955423690
