<?xml version="1.0" encoding="UTF-8"?>
<ndm xmlns:xsi="http://www.w3.org/2001/XMLSchema-instance" xsi:noNamespaceSchemaLocation="https://sanaregistry.org/r/ndmxml_unqualified/ndmxml-2.0.0-master-2.0.xsd">
<omm id="CCSDS_OMM_VERS" version="2.0">
<header><CREATION_DATE/><ORIGINATOR/></header><body><segment><metadata><OBJECT_NAME>IRIDIUM 921</OBJECT_NAME><OBJECT_ID>1997-034E</OBJECT_ID><CENTER_NAME>EARTH</CENTER_NAME><REF_FRAME>TEME</REF_FRAME><TIME_SYSTEM>UTC</TIME_SYSTEM><MEAN_ELEMENT_THEORY>SGP4</MEAN_ELEMENT_THEORY></metadata><data><meanElements><EPOCH>2024-11-18T04:38:31.800768</EPOCH><MEAN_MOTION>15.62465059</MEAN_MOTION><ECCENTRICITY>.0006298</ECCENTRICITY><INCLINATION>86.3751</INCLINATION><RA_OF_ASC_NODE>210.8279</RA_OF_ASC_NODE><ARG_OF_PERICENTER>61.8730</ARG_OF_PERICENTER><MEAN_ANOMALY>298.3172</MEAN_ANOMALY></meanElements><tleParameters><EPHEMERIS_TYPE>0</EPHEMERIS_TYPE><CLASSIFICATION_TYPE>U</CLASSIFICATION_TYPE><NORAD_CAT_ID>24873</NORAD_CAT_ID><ELEMENT_SET_NO>999</ELEMENT_SET_NO><REV_AT_EPOCH>49900</REV_AT_EPOCH><BSTAR>.9853E-3</BSTAR><MEAN_MOTION_DOT>.88265E-3</MEAN_MOTION_DOT><MEAN_MOTION_DDOT>0</MEAN_MOTION_DDOT></tleParameters></data></segment></body></omm>
<omm id="CCSDS_OMM_VERS" version="2.0">
<header><CREATION_DATE/><ORIGINATOR/></header><body><segment><metadata><OBJECT_NAME>IRIDIUM 26</OBJECT_NAME><OBJECT_ID>1997-043A</OBJECT_ID><CENTER_NAME>EARTH</CENTER_NAME><REF_FRAME>TEME</REF_FRAME><TIME_SYSTEM>UTC</TIME_SYSTEM><MEAN_ELEMENT_THEORY>SGP4</MEAN_ELEMENT_THEORY></metadata><data><meanElements><EPOCH>2024-11-18T11:23:09.079296</EPOCH><MEAN_MOTION>14.36799292</MEAN_MOTION><ECCENTRICITY>.000232</ECCENTRICITY><INCLINATION>86.4007</INCLINATION><RA_OF_ASC_NODE>199.0330</RA_OF_ASC_NODE><ARG_OF_PERICENTER>81.7927</ARG_OF_PERICENTER><MEAN_ANOMALY>278.3534</MEAN_ANOMALY></meanElements><tleParameters><EPHEMERIS_TYPE>0</EPHEMERIS_TYPE><CLASSIFICATION_TYPE>U</CLASSIFICATION_TYPE><NORAD_CAT_ID>24903</NORAD_CAT_ID><ELEMENT_SET_NO>999</ELEMENT_SET_NO><REV_AT_EPOCH>42648</REV_AT_EPOCH><BSTAR>.21407E-3</BSTAR><MEAN_MOTION_DOT>.651E-5</MEAN_MOTION_DOT><MEAN_MOTION_DDOT>0</MEAN_MOTION_DDOT></tleParameters></data></segment></body></omm>
<omm id="CCSDS_OMM_VERS" version="2.0">
<header><CREATION_DATE/><ORIGINATOR/></header><body><segment><metadata><OBJECT_NAME>IRIDIUM 22</OBJECT_NAME><OBJECT_ID>1997-043E</OBJECT_ID><CENTER_NAME>EARTH</CENTER_NAME><REF_FRAME>TEME</REF_FRAME><TIME_SYSTEM>UTC</TIME_SYSTEM><MEAN_ELEMENT_THEORY>SGP4</MEAN_ELEMENT_THEORY></metadata><data><meanElements><EPOCH>2024-11-18T10:36:07.656192</EPOCH><MEAN_MOTION>14.35650750</MEAN_MOTION><ECCENTRICITY>.000208</ECCENTRICITY><INCLINATION>86.4011</INCLINATION><RA_OF_ASC_NODE>202.4018</RA_OF_ASC_NODE><ARG_OF_PERICENTER>82.4389</ARG_OF_PERICENTER><MEAN_ANOMALY>277.7044</MEAN_ANOMALY></meanElements><tleParameters><EPHEMERIS_TYPE>0</EPHEMERIS_TYPE><CLASSIFICATION_TYPE>U</CLASSIFICATION_TYPE><NORAD_CAT_ID>24907</NORAD_CAT_ID><ELEMENT_SET_NO>999</ELEMENT_SET_NO><REV_AT_EPOCH>42653</REV_AT_EPOCH><BSTAR>.19023E-3</BSTAR><MEAN_MOTION_DOT>.568E-5</MEAN_MOTION_DOT><MEAN_MOTION_DDOT>0</MEAN_MOTION_DDOT></tleParameters></data></segment></body></omm>
<omm id="CCSDS_OMM_VERS" version="2.0">
<header><CREATION_DATE/><ORIGINATOR/></header><body><segment><metadata><OBJECT_NAME>DUMMY MASS 1</OBJECT_NAME><OBJECT_ID>1997-048A</OBJECT_ID><CENTER_NAME>EARTH</CENTER_NAME><REF_FRAME>TEME</REF_FRAME><TIME_SYSTEM>UTC</TIME_SYSTEM><MEAN_ELEMENT_THEORY>SGP4</MEAN_ELEMENT_THEORY></metadata><data><meanElements><EPOCH>2024-11-18T13:26:59.112960</EPOCH><MEAN_MOTION>14.86622116</MEAN_MOTION><ECCENTRICITY>.0007344</ECCENTRICITY><INCLINATION>86.3374</INCLINATION><RA_OF_ASC_NODE>232.6210</RA_OF_ASC_NODE><ARG_OF_PERICENTER>153.4784</ARG_OF_PERICENTER><MEAN_ANOMALY>206.6818</MEAN_ANOMALY></meanElements><tleParameters><EPHEMERIS_TYPE>0</EPHEMERIS_TYPE><CLASSIFICATION_TYPE>U</CLASSIFICATION_TYPE><NORAD_CAT_ID>24925</NORAD_CAT_ID><ELEMENT_SET_NO>999</ELEMENT_SET_NO><REV_AT_EPOCH>47407</REV_AT_EPOCH><BSTAR>.86739E-4</BSTAR><MEAN_MOTION_DOT>.797E-5</MEAN_MOTION_DOT><MEAN_MOTION_DDOT>0</MEAN_MOTION_DDOT></tleParameters></data></segment></body></omm>
<omm id="CCSDS_OMM_VERS" version="2.0">
<header><CREATION_DATE/><ORIGINATOR/></header><body><segment><metadata><OBJECT_NAME>DUMMY MASS 2</OBJECT_NAME><OBJECT_ID>1997-048B</OBJECT_ID><CENTER_NAME>EARTH</CENTER_NAME><REF_FRAME>TEME</REF_FRAME><TIME_SYSTEM>UTC</TIME_SYSTEM><MEAN_ELEMENT_THEORY>SGP4</MEAN_ELEMENT_THEORY></metadata><data><meanElements><EPOCH>2024-11-18T13:19:07.392288</EPOCH><MEAN_MOTION>14.86377186</MEAN_MOTION><ECCENTRICITY>.0007626</ECCENTRICITY><INCLINATION>86.3371</INCLINATION><RA_OF_ASC_NODE>234.1928</RA_OF_ASC_NODE><ARG_OF_PERICENTER>165.7521</ARG_OF_PERICENTER><MEAN_ANOMALY>194.3920</MEAN_ANOMALY></meanElements><tleParameters><EPHEMERIS_TYPE>0</EPHEMERIS_TYPE><CLASSIFICATION_TYPE>U</CLASSIFICATION_TYPE><NORAD_CAT_ID>24926</NORAD_CAT_ID><ELEMENT_SET_NO>999</ELEMENT_SET_NO><REV_AT_EPOCH>47361</REV_AT_EPOCH><BSTAR>.86733E-4</BSTAR><MEAN_MOTION_DOT>.793E-5</MEAN_MOTION_DOT><MEAN_MOTION_DDOT>0</MEAN_MOTION_DDOT></tleParameters></data></segment></body></omm>
<omm id="CCSDS_OMM_VERS" version="2.0">
<header><CREATION_DATE/><ORIGINATOR/></header><body><segment><metadata><OBJECT_NAME>IRIDIUM 29</OBJECT_NAME><OBJECT_ID>1997-051A</OBJECT_ID><CENTER_NAME>EARTH</CENTER_NAME><REF_FRAME>TEME</REF_FRAME><TIME_SYSTEM>UTC</TIME_SYSTEM><MEAN_ELEMENT_THEORY>SGP4</MEAN_ELEMENT_THEORY></metadata><data><meanElements><EPOCH>2024-11-18T19:32:43.795392</EPOCH><MEAN_MOTION>14.36110593</MEAN_MOTION><ECCENTRICITY>.0002058</ECCENTRICITY><INCLINATION>86.3984</INCLINATION><RA_OF_ASC_NODE>232.0440</RA_OF_ASC_NODE><ARG_OF_PERICENTER>85.6733</ARG_OF_PERICENTER><MEAN_ANOMALY>274.4698</MEAN_ANOMALY></meanElements><tleParameters><EPHEMERIS_TYPE>0</EPHEMERIS_TYPE><CLASSIFICATION_TYPE>U</CLASSIFICATION_TYPE><NORAD_CAT_ID>24944</NORAD_CAT_ID><ELEMENT_SET_NO>999</ELEMENT_SET_NO><REV_AT_EPOCH>42329</REV_AT_EPOCH><BSTAR>.23465E-3</BSTAR><MEAN_MOTION_DOT>.702E-5</MEAN_MOTION_DOT><MEAN_MOTION_DDOT>0</MEAN_MOTION_DDOT></tleParameters></data></segment></body></omm>
<omm id="CCSDS_OMM_VERS" version="2.0">
<header><CREATION_DATE/><ORIGINATOR/></header><body><segment><metadata><OBJECT_NAME>IRIDIUM 33</OBJECT_NAME><OBJECT_ID>1997-051C</OBJECT_ID><CENTER_NAME>EARTH</CENTER_NAME><REF_FRAME>TEME</REF_FRAME><TIME_SYSTEM>UTC</TIME_SYSTEM><MEAN_ELEMENT_THEORY>SGP4</MEAN_ELEMENT_THEORY></metadata><data><meanElements><EPOCH>2024-11-18T18:46:07.618368</EPOCH><MEAN_MOTION>14.34650857</MEAN_MOTION><ECCENTRICITY>.0009719</ECCENTRICITY><INCLINATION>86.3902</INCLINATION><RA_OF_ASC_NODE>231.3049</RA_OF_ASC_NODE><ARG_OF_PERICENTER>53.2331</ARG_OF_PERICENTER><MEAN_ANOMALY>306.9756</MEAN_ANOMALY></meanElements><tleParameters><EPHEMERIS_TYPE>0</EPHEMERIS_TYPE><CLASSIFICATION_TYPE>U</CLASSIFICATION_TYPE><NORAD_CAT_ID>24946</NORAD_CAT_ID><ELEMENT_SET_NO>999</ELEMENT_SET_NO><REV_AT_EPOCH>42258</REV_AT_EPOCH><BSTAR>.16994E-3</BSTAR><MEAN_MOTION_DOT>.5E-5</MEAN_MOTION_DOT><MEAN_MOTION_DDOT>0</MEAN_MOTION_DDOT></tleParameters></data></segment></body></omm>
<omm id="CCSDS_OMM_VERS" version="2.0">
<header><CREATION_DATE/><ORIGINATOR/></header><body><segment><metadata><OBJECT_NAME>IRIDIUM 28</OBJECT_NAME><OBJECT_ID>1997-051E</OBJECT_ID><CENTER_NAME>EARTH</CENTER_NAME><REF_FRAME>TEME</REF_FRAME><TIME_SYSTEM>UTC</TIME_SYSTEM><MEAN_ELEMENT_THEORY>SGP4</MEAN_ELEMENT_THEORY></metadata><data><meanElements><EPOCH>2024-11-18T18:51:05.424480</EPOCH><MEAN_MOTION>14.37058955</MEAN_MOTION><ECCENTRICITY>.0002637</ECCENTRICITY><INCLINATION>86.3993</INCLINATION><RA_OF_ASC_NODE>229.6921</RA_OF_ASC_NODE><ARG_OF_PERICENTER>78.0800</ARG_OF_PERICENTER><MEAN_ANOMALY>282.0693</MEAN_ANOMALY></meanElements><tleParameters><EPHEMERIS_TYPE>0</EPHEMERIS_TYPE><CLASSIFICATION_TYPE>U</CLASSIFICATION_TYPE><NORAD_CAT_ID>24948</NORAD_CAT_ID><ELEMENT_SET_NO>999</ELEMENT_SET_NO><REV_AT_EPOCH>42369</REV_AT_EPOCH><BSTAR>.22553E-3</BSTAR><MEAN_MOTION_DOT>.688E-5</MEAN_MOTION_DOT><MEAN_MOTION_DDOT>0</MEAN_MOTION_DDOT></tleParameters></data></segment></body></omm>

</ndm>
